[{"OBJECT_NAME":"STARLINK-36542","OBJECT_ID":"2026-008A","EPOCH":"2026-03-09T09:25:55.140384","MEAN_MOTION":15.27630907,"ECCENTRICITY":0.00013345,"INCLINATION":42.9989,"RA_OF_ASC_NODE":207.1817,"ARG_OF_PERICENTER":182.2029,"MEAN_ANOMALY":177.8817,"EPHEMERIS_TYPE":0,"CLASSIFICATION_TYPE":"U","NORAD_CAT_ID":67445,"ELEMENT_SET_NO":999,"REV_AT_EPOCH":952,"BSTAR":0.0011507085,"MEAN_MOTION_DOT":0.00031588,"MEAN_MOTION_DDOT":0},{"OBJECT_NAME":"M-3H R\/B","OBJECT_ID":"1978-087B","EPOCH":"2026-03-09T16:46:57.054144","MEAN_MOTION":7.43396159,"ECCENTRICITY":0.40171556,"INCLINATION":31.2257,"RA_OF_ASC_NODE":177.434,"ARG_OF_PERICENTER":33.6771,"MEAN_ANOMALY":346.4115,"EPHEMERIS_TYPE":0,"CLASSIFICATION_TYPE":"U","NORAD_CAT_ID":11028,"ELEMENT_SET_NO":999,"REV_AT_EPOCH":71853,"BSTAR":0.0012362994,"MEAN_MOTION_DOT":0.00027239,"MEAN_MOTION_DDOT":0}]
